HAWK-2C                 
1 47502U 21006CT  26068.67595434  .00008129  00000+0  25493-3 0  9997
2 47502  97.2417 114.9961 0006943 184.0877 176.0310 15.33286436284247
STARLINK-2232           
1 48578U 21041AB  26068.80037140  .00015414  00000+0  53127-3 0  9990
2 48578  53.1585 126.1890 0001363  96.9551 263.1605 15.30210888265299
